sat00979
1 00979U 65004B   20046.88914815 -.00000030  00000-0 -10196-4 0  9992
2 00979  96.4144 265.1636 1141677 255.0262  92.1886 12.14665221434648
